S-NET B                 
1 43187U 18014H   22244.30942977  .00000392  00000+0  37948-4 0  9990
2 43187  97.6504 148.5310 0012142  47.6611 312.5638 14.98116508250270
S-NET A                 
1 43188U 18014J   22244.30973376  .00000385  00000+0  37375-4 0  9994
2 43188  97.6509 148.5990 0012145  47.7530 312.4721 14.98115985250274
S-NET C                 
1 43189U 18014K   22244.31056938  .00000361  00000+0  35340-4 0  9996
2 43189  97.6502 148.5199 0012084  47.5045 312.7196 14.98112419248826
FENGMANIU-1 (FMN-1)     
1 43192U 18015A   22244.57468858  .00022012  00000+0  52056-3 0  9996
2 43192  97.5435  31.9730 0010547 118.8560 299.6819 15.41776008255165
SHAONIAN XING           
1 43199U 18015H   22244.57333903  .00011912  00000+0  33867-3 0  9991
2 43199  97.5229  26.3951 0013451 128.2057   2.3222 15.36223322255122
LUOJIA-1 01             
1 43485U 18048B   22244.53356143  .00000492  00000+0  76257-4 0  9994
2 43485  97.9320 324.5673 0010221 319.8984  40.1484 14.77476728229102
SURFSAT                 
1 43614U 18070B   22244.44231024  .00034938  00000+0  42335-3 0  9994
2 43614  93.0217 131.1198 0013141  80.7523 279.5228 15.60431405222898
CP7 (DAVE)              
1 43615U 18070C   22244.46139129  .00031438  00000+0  40884-3 0  9999
2 43615  93.0204 130.8966 0013808  82.7933 277.4901 15.58564253222857
ELFIN-B                 
1 43616U 18070D   22244.22779790  .00225378  00000+0  90025-3 0  9998
2 43616  93.0070 132.7871 0009800  84.7704 275.4694 15.85955495223287
ELFIN-A                 
1 43617U 18070E   22244.21194431  .00361779  51349-4  94529-3 0  9997
2 43617  93.0111 134.4139 0008323  98.3760 261.8469 15.94863463223363
CZ-4B R/B               
1 43656U 18081B   22244.40120887  .00000062  00000+0  37097-4 0  9993
2 43656  99.4085  24.4006 0207367 286.1211  71.7231 14.30595336201219
CUBEBEL-1 (BSUSAT-1)    
1 43666U 18083E   22244.57135133  .00005712  00000+0  23607-3 0  9992
2 43666  97.4161 272.4351 0014503  69.5191  34.3509 15.24293648213074
CHANGSHAGAOXIN (TY 4-01)
1 43669U 18083H   22244.57571897  .00005242  00000+0  22780-3 0  9995
2 43669  97.4117 268.1815 0011219  69.5290  86.2919 15.22661416212885
TEN-KOH                 
1 43677U 18084G   22244.37221993  .00000807  00000+0  86838-4 0  9999
2 43677  97.9741  15.1609 0016292  25.9390 334.2641 14.91251259208996
DIWATA-2B               
1 43678U 18084H   22244.55721706  .00000689  00000+0  73265-4 0  9995
2 43678  97.9814  18.7625 0010730  40.9120 319.2875 14.92275193209205
STARS-AO                
1 43679U 18084J   22244.35643947  .00000971  00000+0  97114-4 0  9997
2 43679  97.9848  20.6743 0009776  45.6216 314.5803 14.93814511209272
AUTCUBE 2               
1 43681U 18084K   22244.33933173  .00001028  00000+0  10424-3 0  9993
2 43681  97.9808  19.1927 0010070  40.8823 319.3150 14.93135484209170
IRVINE01                
1 43693U 18088D   22244.09437478  .00023554  00000+0  54446-3 0  9990
2 43693  85.0241 259.3705 0012542 167.0299 193.1279 15.42283015211867
ES'HAIL 2               
1 43700U 18090A   22244.24354976  .00000146  00000+0  00000+0 0  9995
2 43700   0.0175 135.3168 0002013  59.0168 259.5084  1.00272403 13782
FACSAT-1                
1 43721U 18096C   22244.53299659  .00014457  00000+0  37983-3 0  9996
2 43721  97.3478 324.3903 0014260 137.4500 350.3619 15.38608224209663
CENTAURI-2              
1 43722U 18096D   22244.19744250  .00023010  00000+0  52644-3 0  9997
2 43722  97.3517 326.4993 0012833 135.3783 224.8500 15.42730004209744
3CAT-1                  
1 43728U 18096K   22244.20015112  .00021037  00000+0  48202-3 0  9995
2 43728  97.3531 327.2694 0012820 137.1503 223.0746 15.42703909209780
INNOSAT-2               
1 43738U 18096V   22244.59807539  .00054544  00000+0  76632-3 0  9997
2 43738  97.3615 335.3970 0011800 127.3848 340.0798 15.56457938210323
REAKTOR HELLO WORLD     
1 43743U 18096AA  22244.16250223  .00009504  00000+0  27713-3 0  9990
2 43743  97.3486 323.7778 0015539 143.6849 216.5452 15.35454033209576
ELYSIUM STAR 2 & LFF    
1 43760U 18099C   22244.49997343  .00003691  00000+0  30719-3 0  9990
2 43760  97.6237 311.4131 0013360   9.2748 350.8720 14.99211342204516
2018-099D               
1 43761U 18099D   22244.58980619  .00000679  00000+0  65425-4 0  9995
2 43761  97.6165 309.2678 0014620  19.5259 340.6532 14.96018329204402
AISTECHSAT 2            
1 43768U 18099L   22244.42507769  .00000623  00000+0  60580-4 0  9992
2 43768  97.6112 307.5832 0011592  20.9683 339.2012 14.95977582204047
FOX-1CLIFF (AO-95)      
1 43770U 18099N   22244.40988923  .00001495  00000+0  13556-3 0  9996
2 43770  97.6155 308.7794 0014756  27.6431 332.5572 14.96726112204372
RANGE-A                 
1 43772U 18099Q   22244.43728929  .00001310  00000+0  11740-3 0  9998
2 43772  97.6263 310.6658 0013760  12.1346 348.0205 14.97425375204400
RANGE-B                 
1 43773U 18099R   22244.48835210  .00000788  00000+0  74779-4 0  9996
2 43773  97.6074 307.6136 0013520  14.5856 345.5753 14.96241517204362
2018-099T               
1 43775U 18099T   22244.41612039  .00000596  00000+0  57825-4 0  9993
2 43775  97.6154 308.8494 0014799  19.0542 341.1230 14.96183596204368
MOVE-II                 
1 43780U 18099Y   22244.43301881  .00002956  00000+0  25355-3 0  9995
2 43780  97.6184 310.1213 0013059  20.0059 340.1673 14.98197233204438
SNUSAT-2                
1 43782U 18099AA  22244.18164261  .00001345  00000+0  12216-3 0  9991
2 43782  97.6149 309.0394 0012331  13.8449 346.3109 14.96864015204364
SNUGLITE                
1 43784U 18099AC  22244.14098154  .00001667  00000+0  14912-3 0  9998
2 43784  97.6121 308.6306 0015093  21.7996 338.3865 14.97110945204386
ITASAT 1                
1 43786U 18099AE  22244.19625348  .00001613  00000+0  14552-3 0  9997
2 43786  97.6178 309.5297 0015013  21.0337 339.1499 14.96828018204381
KAZSCISAT-1             
1 43787U 18099AF  22244.41610466  .00002624  00000+0  22567-3 0  9996
2 43787  97.6109 309.0040 0013898  15.9108 344.2549 14.98183985204476
EAGLET-I                
1 43790U 18099AJ  22244.41806086  .00000783  00000+0  72971-4 0  9994
2 43790  97.6176 310.2876 0013663  23.8791 336.3062 14.96961009204157
ESEO                    
1 43792U 18099AL  22244.45057068  .00000891  00000+0  83757-4 0  9992
2 43792  97.6119 309.4226 0013420  21.0369 339.1402 14.96308755204193
CSIM-FD                 
1 43793U 18099AM  22244.43878564  .00003006  00000+0  25339-3 0  9995
2 43793  97.6187 311.1019 0012291   9.9470 350.1994 14.98871214204266
ASTROCAST 0.1           
1 43798U 18099AS  22244.42354290  .00001596  00000+0  13978-3 0  9992
2 43798  97.6190 310.8761 0011950   1.5465 358.5792 14.98027063204485
JY1SAT (JO-97)          
1 43803U 18099AX  22244.45462171  .00002151  00000+0  18966-3 0  9990
2 43803  97.6135 309.5604 0014628  18.5098 341.6654 14.97388358204449
SUOMI-100               
1 43804U 18099AY  22244.41095164  .00001607  00000+0  14332-3 0  9999
2 43804  97.6142 309.4242 0015155  19.8277 340.3531 14.97279722204448
AL-FARABI 2             
1 43805U 18099AZ  22244.63444305  .00000939  00000+0  84397-4 0  9995
2 43805  97.6163 310.2170 0015152  15.4881 344.6803 14.97922607204505
CENTAURI-1              
1 43809U 18099BD  22244.45929708  .00001747  00000+0  15668-3 0  9996
2 43809  97.6146 309.7634 0015020  20.3682 339.8136 14.96940880204143
CHOMPTT                 
1 43855U 18104G   22244.34074631  .00006211  00000+0  22172-3 0  9997
2 43855  85.0388   0.5149 0013467 322.4702  37.5602 15.28551645206316
DAVINCI                 
1 43857U 18104J   22244.30897370  .00030641  00000+0  71279-3 0  9994
2 43857  85.0286 357.5436 0008255 333.6561  26.4271 15.42129611206538
UWE-4                   
1 43880U 18111E   22244.46616127  .00001970  00000+0  16944-3 0  9995
2 43880  97.6593 149.4413 0012711  67.7930 292.4640 14.98470495201083
ZACUBE-2                
1 43907U 18111AH  22244.53614968  .00004430  00000+0  16053-3 0  9999
2 43907  97.1789 128.1415 0019829 163.5987 315.7159 15.28690474204919
MICRODRAGON             
1 43935U 19003D   22244.41072521  .00003807  00000+0  14792-3 0  9996
2 43935  97.1331 271.1221 0014617 263.6705  96.2870 15.26548911201281
AOBA VELOX-IV           
1 43940U 19003J   22244.09418914  .00015771  00000+0  38565-3 0  9993
2 43940  97.1202 277.8676 0015134 223.4067 136.5990 15.40762973201767
M6P                     
1 44109U 19018AF  22244.48634761  .00013737  00000+0  31610-3 0  9994
2 44109  97.3927 329.5247 0044664 211.3282 148.5303 15.41684485191160
FORMOSAT 7-4            
1 44350U 19036M   22244.31190669  .00002410  00000+0  12448-3 0  9992
2 44350  23.9986 221.6999 0005432 268.0307  91.9575 15.09766383174942
PAINANI 1               
1 44365U 19037A   22244.53250419  .00031716  00000+0  39514-3 0  9997
2 44365  44.9961 296.8523 0010922 343.8994  16.1553 15.59333021179095
METEOR-M2 2             
1 44387U 19038A   22244.54462584 -.00000013  00000+0  13885-4 0  9992
2 44387  98.7291 204.7371 0002345  66.4098 293.7316 14.23718025164235
VDNH-80                 
1 44392U 19038G   22244.52858250  .00004531  00000+0  22519-3 0  9996
2 44392  97.6407 215.1196 0017426 224.6053 274.9994 15.18048201174381
D-STAR ONE (LIGHTSAT)   
1 44393U 19038H   22244.44661597  .00006452  00000+0  31837-3 0  9991
2 44393  97.6424 214.9368 0017671 224.9926 134.9877 15.18123903174561
AMGU-1 (AMURSAT)        
1 44394U 19038J   22244.56845022  .00005157  00000+0  25306-3 0  9997
2 44394  97.6412 215.0289 0017441 224.9535 135.0289 15.18424322174584
DOT-1                   
1 44399U 19038P   22244.51517728  .00004281  00000+0  22712-3 0  9991
2 44399  97.6466 213.6068 0021085 233.4953 126.4338 15.15723524174464
SOKRAT                  
1 44404U 19038U   22244.44052543  .00006613  00000+0  32542-3 0  9992
2 44404  97.6413 214.5366 0017700 226.8991 133.0763 15.18208172174546
